{
  "type": "FeatureCollection",
  "features": [
    {
      "type": "Feature",
      "properties": {
        "source": "BambookDebugCandidate",
        "id": "51458",
        "height": 37.12139892578125,
        "var": 36.8609619140625,
        "region": "CHN",
        "render_height": 95
      },
      "geometry": {
        "type": "Polygon",
        "coordinates": [
          [
            [
              120.5082848,
              31.8698362
            ],
            [
              120.50829,
              31.8697045
            ],
            [
              120.5083549,
              31.8698123
            ],
            [
              120.5084828,
              31.8698123
            ],
            [
              120.5087926,
              31.8697224
            ],
            [
              120.5086022,
              31.8692325
            ],
            [
              120.5085538,
              31.8692193
            ],
            [
              120.5078483,
              31.8694619
            ],
            [
              120.5079357,
              31.8696731
            ],
            [
              120.5080904,
              31.8696775
            ],
            [
              120.5079357,
              31.8698923
            ],
            [
              120.5079675,
              31.869974
            ],
            [
              120.5082848,
              31.8698362
            ]
          ],
          [
            [
              120.5083213,
              31.8694888
            ],
            [
              120.5084882,
              31.8694349
            ],
            [
              120.5086022,
              31.8694499
            ],
            [
              120.5085705,
              31.8695068
            ],
            [
              120.5083483,
              31.8695697
            ],
            [
              120.5083213,
              31.8694888
            ]
          ]
        ]
      }
    }
  ]
}
